[{"OBJECT_NAME":"ONEWEB-0006","OBJECT_ID":"2019-010E","EPOCH":"2026-03-09T22:27:56.417760","MEAN_MOTION":13.15547208,"ECCENTRICITY":0.00017085,"INCLINATION":87.8948,"RA_OF_ASC_NODE":278.9955,"ARG_OF_PERICENTER":96.2783,"MEAN_ANOMALY":263.8542,"EPHEMERIS_TYPE":0,"CLASSIFICATION_TYPE":"U","NORAD_CAT_ID":44061,"ELEMENT_SET_NO":999,"REV_AT_EPOCH":33837,"BSTAR":3.6231669e-5,"MEAN_MOTION_DOT":2.6e-7,"MEAN_MOTION_DDOT":0},{"OBJECT_NAME":"PSLV R\/B","OBJECT_ID":"2016-015B","EPOCH":"2026-03-09T18:41:37.106880","MEAN_MOTION":4.6138341,"ECCENTRICITY":0.56336356,"INCLINATION":17.7704,"RA_OF_ASC_NODE":51.3657,"ARG_OF_PERICENTER":176.364,"MEAN_ANOMALY":190.8572,"EPHEMERIS_TYPE":0,"CLASSIFICATION_TYPE":"U","NORAD_CAT_ID":41385,"ELEMENT_SET_NO":999,"REV_AT_EPOCH":15244,"BSTAR":0.00089074322,"MEAN_MOTION_DOT":6.015e-5,"MEAN_MOTION_DDOT":0}]
